OBJECT_NAME,OBJECT_ID,EPOCH,MEAN_MOTION,ECCENTRICITY,INCLINATION,RA_OF_ASC_NODE,ARG_OF_PERICENTER,MEAN_ANOMALY,EPHEMERIS_TYPE,CLASSIFICATION_TYPE,NORAD_CAT_ID,ELEMENT_SET_NO,REV_AT_EPOCH,BSTAR,MEAN_MOTION_DOT,MEAN_MOTION_DDOT
STARLINK-35678,2025-288N,2026-05-24T04:27:24.444576,15.27587598,.0001218,43.0022,317.0804,281.1351,78.9364,0,U,66971,999,2683,.42459E-3,.11442E-3,0
STARLINK-34846,2025-288P,2026-05-24T04:10:45.340896,15.27592781,.0000913,43.0059,316.9920,294.0618,66.0139,0,U,66972,999,2683,.34301E-3,.9192E-4,0
STARLINK-35778,2025-288Q,2026-05-23T23:09:46.844064,15.27593401,.0001439,43.0007,318.0097,264.7159,95.3528,0,U,66973,999,2680,.52551E-3,.14233E-3,0
STARLINK-35780,2025-288R,2026-05-23T21:26:22.794432,15.27585556,.0001666,43.0012,318.3252,267.6859,92.3802,0,U,66974,999,2679,.62211E-3,.16899E-3,0
STARLINK-35777,2025-288S,2026-05-24T03:39:30.727008,15.27598988,.0001628,43.0025,317.6965,272.4313,87.6353,0,U,66975,999,2682,.70403E-3,.19173E-3,0
STARLINK-35772,2025-288T,2026-05-24T04:25:34.580064,15.27586335,.0001146,43.0031,317.1192,275.0315,85.0406,0,U,66976,999,2683,.64951E-3,.17657E-3,0
STARLINK-35770,2025-288U,2026-05-24T04:51:28.395072,15.27573909,.0000142,43.0014,317.2112,46.8960,313.1903,0,U,66977,999,2683,.19545E-3,.5119E-4,0
STARLINK-35787,2025-288V,2026-05-24T03:57:48.204864,15.27594183,.0000967,42.9992,316.9310,276.3777,83.6964,0,U,66978,999,2683,.39545E-3,.1064E-3,0
STARLINK-36107,2025-288W,2026-05-24T03:37:39.919872,15.27581959,.0001692,43.0035,317.6812,276.2540,83.8119,0,U,66979,999,2682,.53291E-3,.14432E-3,0
STARLINK-36086,2025-288X,2026-05-24T04:57:01.072224,15.27579913,.0001445,43.0034,317.2403,274.1272,85.9415,0,U,66980,999,2683,.37306E-3,.10017E-3,0
STARLINK-36142,2025-288Y,2026-05-24T04:42:13.800384,15.27581817,.0000287,43.0011,317.1595,57.5682,302.5197,0,U,66981,999,2683,.35489E-3,.9517E-4,0
STARLINK-36113,2025-288Z,2026-05-23T21:31:55.733376,15.27598401,.000191,43.0014,318.3526,275.3299,84.7334,0,U,66982,999,2679,.87944E-3,.24031E-3,0
STARLINK-36145,2025-288AA,2026-05-24T04:44:03.936192,15.27584182,.0001665,43.0009,317.1679,274.7208,85.3453,0,U,66983,999,2683,.51059E-3,.13816E-3,0
STARLINK-35591,2025-288AB,2026-05-24T04:58:52.115232,15.27581863,.000143,43.0007,317.2501,288.4996,71.5700,0,U,66984,999,2683,.21696E-3,.5713E-4,0
STARLINK-36103,2025-288AC,2026-05-24T05:00:42.976800,15.27581310,.0001188,42.9998,317.2553,270.8794,89.1921,0,U,66985,999,2683,.1942E-3,.5086E-4,0
STARLINK-36135,2025-288AD,2026-05-24T04:32:57.638400,15.27584020,.0001019,43.0041,317.1063,277.8533,82.2203,0,U,66986,999,2683,.33993E-3,.9105E-4,0
STARLINK-36147,2025-288AE,2026-05-24T04:00:01.998720,15.27598446,.0001767,43.0022,317.1324,269.3266,7.2858,0,U,66987,999,585,-.12509E-2,-.34545E-3,0
YAOGAN-47,2025-289A,2026-05-24T05:39:12.797856,15.23679278,.0003464,97.5025,214.5558,120.1607,239.9973,0,U,66988,999,2528,.17247E-3,.4066E-4,0
TJS-22,2025-290A,2026-05-23T22:33:01.937664,1.00274497,.0001849,1.5878,286.2627,348.9163,11.1658,0,U,66990,999,178,0,-.15E-6,0
2025-292A,2025-292A,2026-05-24T03:06:53.927712,15.06089865,.0016811,97.6318,220.0668,82.9269,277.3869,0,U,66993,999,2482,.20719E-3,.2973E-4,0
THE ARAB SATELLITE 813,2025-292B,2026-05-24T02:46:32.111616,15.06274042,.0016372,97.6324,220.1115,83.7547,276.5545,0,U,66994,999,2482,.20388E-3,.2939E-4,0
2025-292C,2025-292C,2026-05-24T02:45:15.230304,15.06352388,.001638,97.6309,220.0884,81.7180,278.5904,0,U,66995,999,2482,.22035E-3,.3188E-4,0
2025-292D,2025-292D,2026-05-24T03:19:14.048256,15.05865941,.0016127,97.6321,220.0530,85.5591,274.7478,0,U,66996,999,2482,.18507E-3,.2632E-4,0
2025-292E,2025-292E,2026-05-24T02:43:06.135744,15.06184224,.0016144,97.6329,220.1274,86.4164,273.8909,0,U,66997,999,2481,.18349E-3,.2632E-4,0
2025-292F,2025-292F,2026-05-24T03:30:13.936896,15.06517301,.0016458,97.6355,220.2762,87.3908,272.9203,0,U,66998,999,2483,.27765E-3,.4053E-4,0
2025-292G,2025-292G,2026-05-24T03:31:51.080736,15.06545782,.0017198,97.6364,220.2944,93.1043,267.2152,0,U,66999,999,2483,.28002E-3,.4092E-4,0
2025-292H,2025-292H,2026-05-24T02:29:15.108576,15.07283598,.0016269,97.6374,220.3861,88.6758,271.6333,0,U,67000,999,2470,.35437E-3,.53E-4,0
2025-292J,2025-292J,2026-05-23T22:12:44.101152,15.06289620,.0016987,97.6348,219.9480,80.4152,279.8993,0,U,67001,999,2479,.23737E-3,.3435E-4,0
STARLINK-35660,2025-293A,2026-05-24T01:36:26.248608,14.98331781,.0003339,70.0009,264.6018,268.4799,91.5977,0,U,67003,999,2617,.11968E-3,.1335E-4,0
STARLINK-35913,2025-293B,2026-05-24T00:48:21.108096,14.98334211,.0003021,70.0010,264.4849,269.3074,90.7739,0,U,67004,999,2616,.14882E-3,.1683E-4,0
