STARLINK-35678          
1 66971U 25288N   26144.18569959  .00011442  00000+0  42459-3 0  9991
2 66971  43.0022 317.0804 0001218 281.1351  78.9364 15.27587598 26831
STARLINK-34846          
1 66972U 25288P   26144.17413589  .00009192  00000+0  34301-3 0  9994
2 66972  43.0059 316.9920 0000913 294.0618  66.0139 15.27592781 26837
STARLINK-35778          
1 66973U 25288Q   26143.96512551  .00014233  00000+0  52551-3 0  9999
2 66973  43.0007 318.0097 0001439 264.7159  95.3528 15.27593401 26801
STARLINK-35780          
1 66974U 25288R   26143.89331938  .00016899  00000+0  62211-3 0  9994
2 66974  43.0012 318.3252 0001666 267.6859  92.3802 15.27585556 26797
STARLINK-35777          
1 66975U 25288S   26144.15243897  .00019173  00000+0  70403-3 0  9991
2 66975  43.0025 317.6965 0001628 272.4313  87.6353 15.27598988 26827
STARLINK-35772          
1 66976U 25288T   26144.18442801  .00017657  00000+0  64951-3 0  9997
2 66976  43.0031 317.1192 0001146 275.0315  85.0406 15.27586335 26833
STARLINK-35770          
1 66977U 25288U   26144.20241198  .00005119  00000+0  19545-3 0  9996
2 66977  43.0014 317.2112 0000142  46.8960 313.1903 15.27573909 26833
STARLINK-35787          
1 66978U 25288V   26144.16514126  .00010640  00000+0  39545-3 0  9993
2 66978  42.9992 316.9310 0000967 276.3777  83.6964 15.27594183 26837
STARLINK-36107          
1 66979U 25288W   26144.15115648  .00014432  00000+0  53291-3 0  9996
2 66979  43.0035 317.6812 0001692 276.2540  83.8119 15.27581959 26826
STARLINK-36086          
1 66980U 25288X   26144.20626241  .00010017  00000+0  37306-3 0  9994
2 66980  43.0034 317.2403 0001445 274.1272  85.9415 15.27579913 26834
STARLINK-36142          
1 66981U 25288Y   26144.19599306  .00009517  00000+0  35489-3 0  9997
2 66981  43.0011 317.1595 0000287  57.5682 302.5197 15.27581817 26833
STARLINK-36113          
1 66982U 25288Z   26143.89717284  .00024031  00000+0  87944-3 0  9992
2 66982  43.0014 318.3526 0001910 275.3299  84.7334 15.27598401 26796
STARLINK-36145          
1 66983U 25288AA  26144.19726778  .00013816  00000+0  51059-3 0  9992
2 66983  43.0009 317.1679 0001665 274.7208  85.3453 15.27584182 26832
STARLINK-35591          
1 66984U 25288AB  26144.20754763  .00005713  00000+0  21696-3 0  9991
2 66984  43.0007 317.2501 0001430 288.4996  71.5700 15.27581863 26837
STARLINK-36103          
1 66985U 25288AC  26144.20883075  .00005086  00000+0  19420-3 0  9996
2 66985  42.9998 317.2553 0001188 270.8794  89.1921 15.27581310 26830
STARLINK-36135          
1 66986U 25288AD  26144.18955600  .00009105  00000+0  33993-3 0  9995
2 66986  43.0041 317.1063 0001019 277.8533  82.2203 15.27584020 26836
STARLINK-36147          
1 66987U 25288AE  26144.16668980 -.00034545  00000+0 -12509-2 0  9993
2 66987  43.0022 317.1324 0001767 269.3266   7.2858 15.27598446  5854
YAOGAN-47               
1 66988U 25289A   26144.23556479  .00004066  00000+0  17247-3 0  9990
2 66988  97.5025 214.5558 0003464 120.1607 239.9973 15.23679278 25280
TJS-22                  
1 66990U 25290A   26143.93960576 -.00000015  00000+0  00000+0 0  9994
2 66990   1.5878 286.2627 0001849 348.9163  11.1658  1.00274497  1782
2025-292A               
1 66993U 25292A   26144.12979083  .00002973  00000+0  20719-3 0  9991
2 66993  97.6318 220.0668 0016811  82.9269 277.3869 15.06089865 24822
THE ARAB SATELLITE 813  
1 66994U 25292B   26144.11564944  .00002939  00000+0  20388-3 0  9991
2 66994  97.6324 220.1115 0016372  83.7547 276.5545 15.06274042 24823
2025-292C               
1 66995U 25292C   26144.11475961  .00003188  00000+0  22035-3 0  9990
2 66995  97.6309 220.0884 0016380  81.7180 278.5904 15.06352388 24820
2025-292D               
1 66996U 25292D   26144.13835704  .00002632  00000+0  18507-3 0  9990
2 66996  97.6321 220.0530 0016127  85.5591 274.7478 15.05865941 24827
2025-292E               
1 66997U 25292E   26144.11326546  .00002632  00000+0  18349-3 0  9992
2 66997  97.6329 220.1274 0016144  86.4164 273.8909 15.06184224 24814
2025-292F               
1 66998U 25292F   26144.14599464  .00004053  00000+0  27765-3 0  9998
2 66998  97.6355 220.2762 0016458  87.3908 272.9203 15.06517301 24836
2025-292G               
1 66999U 25292G   26144.14711899  .00004092  00000+0  28002-3 0  9995
2 66999  97.6364 220.2944 0017198  93.1043 267.2152 15.06545782 24830
2025-292H               
1 67000U 25292H   26144.10364709  .00005300  00000+0  35437-3 0  9992
2 67000  97.6374 220.3861 0016269  88.6758 271.6333 15.07283598 24705
2025-292J               
1 67001U 25292J   26143.92551043  .00003435  00000+0  23737-3 0  9998
2 67001  97.6348 219.9480 0016987  80.4152 279.8993 15.06289620 24795
STARLINK-35660          
1 67003U 25293A   26144.06697047  .00001335  00000+0  11968-3 0  9992
2 67003  70.0009 264.6018 0003339 268.4799  91.5977 14.98331781 26173
STARLINK-35913          
1 67004U 25293B   26144.03357764  .00001683  00000+0  14882-3 0  9993
2 67004  70.0010 264.4849 0003021 269.3074  90.7739 14.98334211 26167
